[{"OBJECT_NAME":"STARLINK-1042","OBJECT_ID":"2019-074AL","EPOCH":"2026-03-09T09:29:26.743488","MEAN_MOTION":15.49795256,"ECCENTRICITY":0.00018597,"INCLINATION":53.0437,"RA_OF_ASC_NODE":96.2053,"ARG_OF_PERICENTER":108.4551,"MEAN_ANOMALY":251.6659,"EPHEMERIS_TYPE":0,"CLASSIFICATION_TYPE":"U","NORAD_CAT_ID":44747,"ELEMENT_SET_NO":999,"REV_AT_EPOCH":35002,"BSTAR":0.00045070979,"MEAN_MOTION_DOT":0.00025134,"MEAN_MOTION_DDOT":0},{"OBJECT_NAME":"GHGSAT-C8","OBJECT_ID":"2023-054J","EPOCH":"2026-03-09T23:10:01.317792","MEAN_MOTION":15.49937888,"ECCENTRICITY":0.00074211,"INCLINATION":97.3083,"RA_OF_ASC_NODE":336.6662,"ARG_OF_PERICENTER":72.8348,"MEAN_ANOMALY":287.3715,"EPHEMERIS_TYPE":0,"CLASSIFICATION_TYPE":"U","NORAD_CAT_ID":56186,"ELEMENT_SET_NO":999,"REV_AT_EPOCH":16305,"BSTAR":0.00034138047,"MEAN_MOTION_DOT":0.00019034,"MEAN_MOTION_DDOT":0}]
